{
  "type": "FeatureCollection",
  "features": [
    {
      "type": "Feature",
      "properties": {
        "norad_id": 66907,
        "name": "1998-067XT",
        "group": "stations",
        "lat": -51.1081544722887,
        "lon": 90.52473721693089,
        "alt_km": 419.1249785060281,
        "timestamp": "2025-12-07T05:38:08.702271+00:00",
        "meta_object_name": "1998-067XT",
        "meta_object_id": "1998-067XT",
        "meta_epoch": "2025-12-06T14:31:31.325088",
        "meta_mean_motion": 15.5045482,
        "meta_eccentricity": 0.00051917,
        "meta_inclination": 51.6295,
        "meta_ra_of_asc_node": 172.8271,
        "meta_arg_of_pericenter": 193.5378,
        "meta_mean_anomaly": 166.5473,
        "meta_ephemeris_type": 0,
        "meta_classification_type": "U",
        "meta_norad_cat_id": 66907,
        "meta_element_set_no": 999,
        "meta_rev_at_epoch": 66,
        "meta_bstar": 0.0014185455,
        "meta_mean_motion_dot": 0.00082713,
        "meta_mean_motion_ddot": 0,
        "tle_line1": "1 66907U 98067XT  25340.60522367  .00082713  00000+0  14185-2 0  9994",
        "tle_line2": "2 66907  51.6295 172.8271 0005191 193.5378 166.5473 15.50454820   666"
      },
      "geometry": {
        "type": "Point",
        "coordinates": [
          90.52473721693089,
          -51.1081544722887
        ]
      }
    },
    {
      "type": "Feature",
      "properties": {
        "norad_id": 66908,
        "name": "1998-067XU",
        "group": "stations",
        "lat": -50.976783431419854,
        "lon": 91.84298170406572,
        "alt_km": 418.9981598415907,
        "timestamp": "2025-12-07T05:38:08.702281+00:00",
        "meta_object_name": "1998-067XU",
        "meta_object_id": "1998-067XU",
        "meta_epoch": "2025-12-06T09:52:54.497568",
        "meta_mean_motion": 15.50486403,
        "meta_eccentricity": 0.0005415,
        "meta_inclination": 51.6293,
        "meta_ra_of_asc_node": 173.7848,
        "meta_arg_of_pericenter": 192.211,
        "meta_mean_anomaly": 167.8749,
        "meta_ephemeris_type": 0,
        "meta_classification_type": "U",
        "meta_norad_cat_id": 66908,
        "meta_element_set_no": 999,
        "meta_rev_at_epoch": 63,
        "meta_bstar": 0.0014263123,
        "meta_mean_motion_dot": 0.00083271,
        "meta_mean_motion_ddot": 0,
        "tle_line1": "1 66908U 98067XU  25340.41174187  .00083271  00000+0  14263-2 0  9994",
        "tle_line2": "2 66908  51.6293 173.7848 0005415 192.2110 167.8749 15.50486403   633"
      },
      "geometry": {
        "type": "Point",
        "coordinates": [
          91.84298170406572,
          -50.976783431419854
        ]
      }
    },
    {
      "type": "Feature",
      "properties": {
        "norad_id": 66909,
        "name": "1998-067XV",
        "group": "stations",
        "lat": -50.94114827438628,
        "lon": 92.17960949236974,
        "alt_km": 418.8472461477395,
        "timestamp": "2025-12-07T05:38:08.702299+00:00",
        "meta_object_name": "1998-067XV",
        "meta_object_id": "1998-067XV",
        "meta_epoch": "2025-12-06T14:31:18.459264",
        "meta_mean_motion": 15.50547779,
        "meta_eccentricity": 0.00052426,
        "meta_inclination": 51.6296,
        "meta_ra_of_asc_node": 172.8258,
        "meta_arg_of_pericenter": 193.8867,
        "meta_mean_anomaly": 166.1979,
        "meta_ephemeris_type": 0,
        "meta_classification_type": "U",
        "meta_norad_cat_id": 66909,
        "meta_element_set_no": 999,
        "meta_rev_at_epoch": 66,
        "meta_bstar": 0.0015899979,
        "meta_mean_motion_dot": 0.00093198,
        "meta_mean_motion_ddot": 0,
        "tle_line1": "1 66909U 98067XV  25340.60507476  .00093198  00000+0  15900-2 0  9995",
        "tle_line2": "2 66909  51.6296 172.8258 0005242 193.8867 166.1979 15.50547779   660"
      },
      "geometry": {
        "type": "Point",
        "coordinates": [
          92.17960949236974,
          -50.94114827438628
        ]
      }
    },
    {
      "type": "Feature",
      "properties": {
        "norad_id": 66910,
        "name": "1998-067XW",
        "group": "stations",
        "lat": -49.906769654792534,
        "lon": 99.44735145205019,
        "alt_km": 419.4547911411537,
        "timestamp": "2025-12-07T05:38:08.702319+00:00",
        "meta_object_name": "1998-067XW",
        "meta_object_id": "1998-067XW",
        "meta_epoch": "2025-12-06T14:30:13.476960",
        "meta_mean_motion": 15.50789302,
        "meta_eccentricity": 0.00061597,
        "meta_inclination": 51.6294,
        "meta_ra_of_asc_node": 172.8206,
        "meta_arg_of_pericenter": 179.5377,
        "meta_mean_anomaly": 180.5619,
        "meta_ephemeris_type": 0,
        "meta_classification_type": "U",
        "meta_norad_cat_id": 66910,
        "meta_element_set_no": 999,
        "meta_rev_at_epoch": 66,
        "meta_bstar": 0.0013604594,
        "meta_mean_motion_dot": 0.0008025,
        "meta_mean_motion_ddot": 0,
        "tle_line1": "1 66910U 98067XW  25340.60432265  .00080250  00000+0  13605-2 0  9995",
        "tle_line2": "2 66910  51.6294 172.8206 0006159 179.5377 180.5619 15.50789302   669"
      },
      "geometry": {
        "type": "Point",
        "coordinates": [
          99.44735145205019,
          -49.906769654792534
        ]
      }
    },
    {
      "type": "Feature",
      "properties": {
        "norad_id": 66911,
        "name": "1998-067XX",
        "group": "stations",
        "lat": -49.72368654937555,
        "lon": 100.45194051485227,
        "alt_km": 419.16289480378055,
        "timestamp": "2025-12-07T05:38:08.702335+00:00",
        "meta_object_name": "1998-067XX",
        "meta_object_id": "1998-067XX",
        "meta_epoch": "2025-12-06T14:30:06.081984",
        "meta_mean_motion": 15.50869311,
        "meta_eccentricity": 0.00060509,
        "meta_inclination": 51.6293,
        "meta_ra_of_asc_node": 172.8204,
        "meta_arg_of_pericenter": 180.1037,
        "meta_mean_anomaly": 179.9952,
        "meta_ephemeris_type": 0,
        "meta_classification_type": "U",
        "meta_norad_cat_id": 66911,
        "meta_element_set_no": 999,
        "meta_rev_at_epoch": 65,
        "meta_bstar": 0.0015610395,
        "meta_mean_motion_dot": 0.00092556,
        "meta_mean_motion_ddot": 0,
        "tle_line1": "1 66911U 98067XX  25340.60423706  .00092556  00000+0  15610-2 0  9996",
        "tle_line2": "2 66911  51.6293 172.8204 0006050 180.1037 179.9952 15.50869311   658"
      },
      "geometry": {
        "type": "Point",
        "coordinates": [
          100.45194051485227,
          -49.72368654937555
        ]
      }
    },
    {
      "type": "Feature",
      "properties": {
        "norad_id": 66912,
        "name": "1998-067XY",
        "group": "stations",
        "lat": -51.2586959776107,
        "lon": 88.76804556203697,
        "alt_km": 419.4779024389527,
        "timestamp": "2025-12-07T05:38:08.702351+00:00",
        "meta_object_name": "1998-067XY",
        "meta_object_id": "1998-067XY",
        "meta_epoch": "2025-12-06T14:31:44.195232",
        "meta_mean_motion": 15.50339462,
        "meta_eccentricity": 0.00052344,
        "meta_inclination": 51.6295,
        "meta_ra_of_asc_node": 172.8274,
        "meta_arg_of_pericenter": 193.0919,
        "meta_mean_anomaly": 166.9935,
        "meta_ephemeris_type": 0,
        "meta_classification_type": "U",
        "meta_norad_cat_id": 66912,
        "meta_element_set_no": 999,
        "meta_rev_at_epoch": 65,
        "meta_bstar": 0.0011669061,
        "meta_mean_motion_dot": 0.00067549,
        "meta_mean_motion_ddot": 0,
        "tle_line1": "1 66912U 98067XY  25340.60537263  .00067549  00000+0  11669-2 0  9995",
        "tle_line2": "2 66912  51.6295 172.8274 0005234 193.0919 166.9935 15.50339462   659"
      },
      "geometry": {
        "type": "Point",
        "coordinates": [
          88.76804556203697,
          -51.2586959776107
        ]
      }
    }
  ]
}